[{"OBJECT_NAME":"STARLINK-34905","OBJECT_ID":"2025-176E","EPOCH":"2026-03-09T12:41:22.199424","MEAN_MOTION":15.30183078,"ECCENTRICITY":0.00010764,"INCLINATION":53.1576,"RA_OF_ASC_NODE":153.6311,"ARG_OF_PERICENTER":82.6433,"MEAN_ANOMALY":277.469,"EPHEMERIS_TYPE":0,"CLASSIFICATION_TYPE":"U","NORAD_CAT_ID":65202,"ELEMENT_SET_NO":999,"REV_AT_EPOCH":3309,"BSTAR":0.00078295387,"MEAN_MOTION_DOT":0.00022889,"MEAN_MOTION_DDOT":0},{"OBJECT_NAME":"KUIPER-00213","OBJECT_ID":"2026-030P","EPOCH":"2026-03-09T22:00:01.999584","MEAN_MOTION":15.32626943,"ECCENTRICITY":0.00152813,"INCLINATION":51.8816,"RA_OF_ASC_NODE":218.5142,"ARG_OF_PERICENTER":64.2462,"MEAN_ANOMALY":206.8369,"EPHEMERIS_TYPE":0,"CLASSIFICATION_TYPE":"U","NORAD_CAT_ID":67777,"ELEMENT_SET_NO":999,"REV_AT_EPOCH":502,"BSTAR":0.0016072376,"MEAN_MOTION_DOT":0.00051551,"MEAN_MOTION_DDOT":0}]
